start=new Date('2022-10-03T00:00:00.000Z').valueOf();
sats=[{"NORAD_CAT_ID":"47776","OBJECT_TYPE":"PAYLOAD","COUNTRY_CODE":"US","OBJECT_NAME":"STARLINK-2209","RA_OF_ASC_NODE":"80.4245","APOAPSIS":"548.122","RCS_SIZE":"LARGE","PERIOD":"95.592","TLE_LINE2":"2 47776  53.0552  80.4245 0001304  72.6607 287.4525 15.06398293 88760","OBJECT_ID":"2021-017BG","REF_FRAME":"TEME","SITE":"AFETR","TIME_SYSTEM":"UTC","LAUNCH_DATE":"2021-03-04","DECAY_DATE":null,"MEAN_MOTION_DDOT":"0.0000000000000","SEMIMAJOR_AXIS":"6925.354","MEAN_ELEMENT_THEORY":"SGP4","BSTAR":"-0.00001964500000","ELEMENT_SET_NO":"999","EPHEMERIS_TYPE":"0","EPOCH":"2022-10-02T19:53:48.312960","FILE":"3589751","TLE_LINE1":"1 47776U 21017BG  22275.82903140 -.00000574  00000-0 -19645-4 0  9994","ARG_OF_PERICENTER":"72.6607","INCLINATION":"53.0552","MEAN_MOTION":"15.06398293","MEAN_MOTION_DOT":"-0.00000574","CLASSIFICATION_TYPE":"U","ECCENTRICITY":"0.00013040","GP_ID":"214048445","MEAN_ANOMALY":"287.4525","CENTER_NAME":"EARTH","PERIAPSIS":"546.316","REV_AT_EPOCH":"8876"},{"GP_ID":"214048682","CENTER_NAME":"EARTH","MEAN_ANOMALY":"306.7481","REV_AT_EPOCH":"8875","PERIAPSIS":"546.160","ELEMENT_SET_NO":"999","EPHEMERIS_TYPE":"0","EPOCH":"2022-10-02T18:23:34.199520","BSTAR":"0.00006077200000","TLE_LINE1":"1 47777U 21017BH  22275.76636805  .00000624  00000-0  60772-4 0  9990","ARG_OF_PERICENTER":"53.3648","FILE":"3589751","MEAN_MOTION_DOT":"0.00000624","CLASSIFICATION_TYPE":"U","INCLINATION":"53.0538","MEAN_MOTION":"15.06399367","ECCENTRICITY":"0.00015240","TLE_LINE2":"2 47777  53.0538  80.7072 0001524  53.3648 306.7481 15.06399367 88759","PERIOD":"95.592","SITE":"AFETR","REF_FRAME":"TEME","OBJECT_ID":"2021-017BH","LAUNCH_DATE":"2021-03-04","TIME_SYSTEM":"UTC","MEAN_ELEMENT_THEORY":"SGP4","SEMIMAJOR_AXIS":"6925.350","MEAN_MOTION_DDOT":"0.0000000000000","DECAY_DATE":null,"NORAD_CAT_ID":"47777","OBJECT_TYPE":"PAYLOAD","RCS_SIZE":"LARGE","APOAPSIS":"548.271","OBJECT_NAME":"STARLINK-2210","RA_OF_ASC_NODE":"80.7072","COUNTRY_CODE":"US"},{"ELEMENT_SET_NO":"999","EPHEMERIS_TYPE":"0","EPOCH":"2022-10-02T17:35:48.041088","BSTAR":"0.00003638500000","TLE_LINE1":"1 47778U 21017BJ  22275.73319492  .00000260  00000-0  36385-4 0  9997","ARG_OF_PERICENTER":"92.6831","FILE":"3589751","CLASSIFICATION_TYPE":"U","MEAN_MOTION_DOT":"0.00000260","INCLINATION":"53.0563","MEAN_MOTION":"15.06397750","ECCENTRICITY":"0.00015900","GP_ID":"214047449","MEAN_ANOMALY":"267.4340","CENTER_NAME":"EARTH","PERIAPSIS":"546.119","REV_AT_EPOCH":"8874","NORAD_CAT_ID":"47778","OBJECT_TYPE":"PAYLOAD","APOAPSIS":"548.322","RCS_SIZE":"LARGE","COUNTRY_CODE":"US","RA_OF_ASC_NODE":"80.8451","OBJECT_NAME":"STARLINK-2211","TLE_LINE2":"2 47778  53.0563  80.8451 0001590  92.6831 267.4340 15.06397750 88743","PERIOD":"95.592","REF_FRAME":"TEME","SITE":"AFETR","OBJECT_ID":"2021-017BJ","LAUNCH_DATE":"2021-03-04","TIME_SYSTEM":"UTC","MEAN_ELEMENT_THEORY":"SGP4","SEMIMAJOR_AXIS":"6925.355","DECAY_DATE":null,"MEAN_MOTION_DDOT":"0.0000000000000"},{"DECAY_DATE":null,"MEAN_MOTION_DDOT":"0.0000000000000","MEAN_ELEMENT_THEORY":"SGP4","SEMIMAJOR_AXIS":"6907.110","TIME_SYSTEM":"UTC","LAUNCH_DATE":"2021-03-04","OBJECT_ID":"2021-017BK","REF_FRAME":"TEME","SITE":"AFETR","PERIOD":"95.215","TLE_LINE2":"2 47779  53.0559  65.3379 0001377  69.8672 290.2467 15.12370494 88970","COUNTRY_CODE":"US","OBJECT_NAME":"STARLINK-2212","RA_OF_ASC_NODE":"65.3379","APOAPSIS":"529.926","RCS_SIZE":"LARGE","OBJECT_TYPE":"PAYLOAD","NORAD_CAT_ID":"47779","PERIAPSIS":"528.024","REV_AT_EPOCH":"8897","MEAN_ANOMALY":"290.2467","CENTER_NAME":"EARTH","GP_ID":"214047698","ECCENTRICITY":"0.00013770","INCLINATION":"53.0559","MEAN_MOTION":"15.12370494","MEAN_MOTION_DOT":"-0.00000090","CLASSIFICATION_TYPE":"U","FILE":"3589751","ARG_OF_PERICENTER":"69.8672","TLE_LINE1":"1 47779U 21017BK  22275.72577511 -.00000090  00000-0  11898-4 0  9999","BSTAR":"0.00001189800000","ELEMENT_SET_NO":"999","EPHEMERIS_TYPE":"0","EPOCH":"2022-10-02T17:25:06.969504"},{"OBJECT_TYPE":"PAYLOAD","NORAD_CAT_ID":"47780","APOAPSIS":"548.137","RCS_SIZE":"LARGE","COUNTRY_CODE":"US","OBJECT_NAME":"STARLINK-2213","RA_OF_ASC_NODE":"80.7219","REF_FRAME":"TEME","SITE":"AFETR","OBJECT_ID":"2021-017BL","TLE_LINE2":"2 47780  53.0550  80.7219 0001339  84.5770 275.5372 15.06401373 88782","PERIOD":"95.592","SEMIMAJOR_AXIS":"6925.344","MEAN_ELEMENT_THEORY":"SGP4","DECAY_DATE":null,"MEAN_MOTION_DDOT":"0.0000000000000","LAUNCH_DATE":"2021-03-04","TIME_SYSTEM":"UTC","ARG_OF_PERICENTER":"84.5770","TLE_LINE1":"1 47780U 21017BL  22275.75900114  .00001393  00000-0  11240-3 0  9999","FILE":"3589751","ELEMENT_SET_NO":"999","EPHEMERIS_TYPE":"0","EPOCH":"2022-10-02T18:12:57.698496","BSTAR":"0.00011240000000","ECCENTRICITY":"0.00013390","MEAN_MOTION_DOT":"0.00001393","CLASSIFICATION_TYPE":"U","INCLINATION":"53.0550","MEAN_MOTION":"15.06401373","GP_ID":"214048945","PERIAPSIS":"546.282","REV_AT_EPOCH":"8878","MEAN_ANOMALY":"275.5372","CENTER_NAME":"EARTH"},{"DECAY_DATE":null,"MEAN_MOTION_DDOT":"0.0000000000000","SEMIMAJOR_AXIS":"6925.360","MEAN_ELEMENT_THEORY":"SGP4","TIME_SYSTEM":"UTC","LAUNCH_DATE":"2021-03-04","OBJECT_ID":"2021-017BM","REF_FRAME":"TEME","SITE":"AFETR","PERIOD":"95.592","TLE_LINE2":"2 47781  53.0556  80.5725 0001270  89.2478 270.8656 15.06396291 88741","COUNTRY_CODE":"US","OBJECT_NAME":"STARLINK-2223","RA_OF_ASC_NODE":"80.5725","APOAPSIS":"548.104","RCS_SIZE":"LARGE","OBJECT_TYPE":"PAYLOAD","NORAD_CAT_ID":"47781","PERIAPSIS":"546.345","REV_AT_EPOCH":"8874","MEAN_ANOMALY":"270.8656","CENTER_NAME":"EARTH","GP_ID":"214049182","ECCENTRICITY":"0.00012700","INCLINATION":"53.0556","MEAN_MOTION":"15.06396291","CLASSIFICATION_TYPE":"U","MEAN_MOTION_DOT":"0.00000223","FILE":"3589751","ARG_OF_PERICENTER":"89.2478","TLE_LINE1":"1 47781U 21017BM  22275.79217017  .00000223  00000-0  33866-4 0  9997","BSTAR":"0.00003386600000","ELEMENT_SET_NO":"999","EPHEMERIS_TYPE":"0","EPOCH":"2022-10-02T19:00:43.502688"},{"RA_OF_ASC_NODE":"120.2001","OBJECT_NAME":"STARLINK-2257","COUNTRY_CODE":"US","RCS_SIZE":"LARGE","APOAPSIS":"548.170","OBJECT_TYPE":"PAYLOAD","NORAD_CAT_ID":"47787","MEAN_MOTION_DDOT":"0.0000000000000","DECAY_DATE":null,"MEAN_ELEMENT_THEORY":"SGP4","SEMIMAJOR_AXIS":"6925.381","TIME_SYSTEM":"UTC","LAUNCH_DATE":"2021-03-11","OBJECT_ID":"2021-018A","SITE":"AFETR","REF_FRAME":"TEME","PERIOD":"95.593","TLE_LINE2":"2 47787  53.0548 120.2001 0001335 106.7137 253.3998 15.06389539 87613","ECCENTRICITY":"0.00013350","MEAN_MOTION":"15.06389539","INCLINATION":"53.0548","MEAN_MOTION_DOT":"0.00000268","CLASSIFICATION_TYPE":"U","FILE":"3589751","ARG_OF_PERICENTER":"106.7137","TLE_LINE1":"1 47787U 21018A   22275.87694332  .00000268  00000-0  36890-4 0  9991","BSTAR":"0.00003689000000","ELEMENT_SET_NO":"999","EPHEMERIS_TYPE":"0","EPOCH":"2022-10-02T21:02:47.902848","REV_AT_EPOCH":"8761","PERIAPSIS":"546.321","CENTER_NAME":"EARTH","MEAN_ANOMALY":"253.3998","GP_ID":"214047949"},{"ELEMENT_SET_NO":"999","EPHEMERIS_TYPE":"0","EPOCH":"2022-10-02T19:43:51.616416","BSTAR":"0.00000849530000","TLE_LINE1":"1 47788U 21018B   22275.82212519 -.00000155  00000-0  84953-5 0  9990","ARG_OF_PERICENTER":"55.2897","FILE":"3589751","CLASSIFICATION_TYPE":"U","MEAN_MOTION_DOT":"-0.00000155","INCLINATION":"53.0546","MEAN_MOTION":"15.06386779","ECCENTRICITY":"0.00011550","GP_ID":"214048198","MEAN_ANOMALY":"304.8201","CENTER_NAME":"EARTH","PERIAPSIS":"546.454","REV_AT_EPOCH":"8797","NORAD_CAT_ID":"47788","OBJECT_TYPE":"PAYLOAD","APOAPSIS":"548.054","RCS_SIZE":"LARGE","COUNTRY_CODE":"US","RA_OF_ASC_NODE":"95.4561","OBJECT_NAME":"STARLINK-2314","TLE_LINE2":"2 47788  53.0546  95.4561 0001155  55.2897 304.8201 15.06386779 87978","PERIOD":"95.593","REF_FRAME":"TEME","SITE":"AFETR","OBJECT_ID":"2021-018B","LAUNCH_DATE":"2021-03-11","TIME_SYSTEM":"UTC","MEAN_ELEMENT_THEORY":"SGP4","SEMIMAJOR_AXIS":"6925.389","DECAY_DATE":null,"MEAN_MOTION_DDOT":"0.0000000000000"},{"OBJECT_TYPE":"PAYLOAD","NORAD_CAT_ID":"47789","RCS_SIZE":"LARGE","APOAPSIS":"548.153","OBJECT_NAME":"STARLINK-2315","RA_OF_ASC_NODE":"100.5317","COUNTRY_CODE":"US","SITE":"AFETR","REF_FRAME":"TEME","OBJECT_ID":"2021-018C","TLE_LINE2":"2 47789  53.0537 100.5317 0001325  92.3104 267.8036 15.06393017 87896","PERIOD":"95.593","SEMIMAJOR_AXIS":"6925.370","MEAN_ELEMENT_THEORY":"SGP4","MEAN_MOTION_DDOT":"0.0000000000000","DECAY_DATE":null,"LAUNCH_DATE":"2021-03-11","TIME_SYSTEM":"UTC","TLE_LINE1":"1 47789U 21018C   22275.80507171 -.00001185  00000-0 -60679-4 0  9993","ARG_OF_PERICENTER":"92.3104","FILE":"3589751","EPHEMERIS_TYPE":"0","ELEMENT_SET_NO":"999","EPOCH":"2022-10-02T19:19:18.195744","BSTAR":"-0.00006067900000","ECCENTRICITY":"0.00013250","CLASSIFICATION_TYPE":"U","MEAN_MOTION_DOT":"-0.00001185","INCLINATION":"53.0537","MEAN_MOTION":"15.06393017","GP_ID":"214048446","REV_AT_EPOCH":"8789","PERIAPSIS":"546.317","CENTER_NAME":"EARTH","MEAN_ANOMALY":"267.8036"},{"BSTAR":"0.00013201000000","ELEMENT_SET_NO":"999","EPOCH":"2022-10-02T20:19:01.272000","EPHEMERIS_TYPE":"0","FILE":"3589751","ARG_OF_PERICENTER":"77.8763","TLE_LINE1":"1 47790U 21018D   22275.84654250  .00001686  00000-0  13201-3 0  9992","MEAN_MOTION":"15.06404135","INCLINATION":"53.0534","MEAN_MOTION_DOT":"0.00001686","CLASSIFICATION_TYPE":"U","ECCENTRICITY":"0.00015140","GP_ID":"214048683","MEAN_ANOMALY":"282.2396","CENTER_NAME":"EARTH","PERIAPSIS":"546.152","REV_AT_EPOCH":"8804","NORAD_CAT_ID":"47790","OBJECT_TYPE":"PAYLOAD","COUNTRY_CODE":"US","OBJECT_NAME":"STARLINK-2319","RA_OF_ASC_NODE":"90.3427","APOAPSIS":"548.249","RCS_SIZE":"LARGE","PERIOD":"95.592","TLE_LINE2":"2 47790  53.0534  90.3427 0001514  77.8763 282.2396 15.06404135 88044","OBJECT_ID":"2021-018D","REF_FRAME":"TEME","SITE":"AFETR","TIME_SYSTEM":"UTC","LAUNCH_DATE":"2021-03-11","DECAY_DATE":null,"MEAN_MOTION_DDOT":"0.0000000000000","MEAN_ELEMENT_THEORY":"SGP4","SEMIMAJOR_AXIS":"6925.336"}];
